{
  "type": "FeatureCollection",
  "features": [
    {
      "type": "Feature",
      "properties": {
        "norad_id": 33412,
        "name": "COSMO-SKYMED 3",
        "group": "resource",
        "lat": 35.509117415794954,
        "lon": -170.81137463526937,
        "alt_km": 557.228733924846,
        "timestamp": "2025-12-10T11:33:53.047929+00:00",
        "meta_object_name": "COSMO-SKYMED 3",
        "meta_object_id": "2008-054A",
        "meta_epoch": "2025-12-10T03:25:42.847392",
        "meta_mean_motion": 15.05312806,
        "meta_eccentricity": 0.0015821,
        "meta_inclination": 97.8458,
        "meta_ra_of_asc_node": 194.4906,
        "meta_arg_of_pericenter": 182.869,
        "meta_mean_anomaly": 177.2447,
        "meta_ephemeris_type": 0,
        "meta_classification_type": "U",
        "meta_norad_cat_id": 33412,
        "meta_element_set_no": 999,
        "meta_rev_at_epoch": 92848,
        "meta_bstar": 0.00049779,
        "meta_mean_motion_dot": 7.08e-05,
        "meta_mean_motion_ddot": 0,
        "tle_line1": "1 33412U 08054A   25344.14285703  .00007080  00000+0  49779-3 0  9991",
        "tle_line2": "2 33412  97.8458 194.4906 0015821 182.8690 177.2447 15.05312806928484"
      },
      "geometry": {
        "type": "Point",
        "coordinates": [
          -170.81137463526937,
          35.509117415794954
        ]
      }
    },
    {
      "type": "Feature",
      "properties": {
        "norad_id": 33446,
        "name": "YAOGAN-4",
        "group": "resource",
        "lat": -21.110293445461135,
        "lon": 91.52306513662748,
        "alt_km": 632.4141003433297,
        "timestamp": "2025-12-10T11:33:53.047940+00:00",
        "meta_object_name": "YAOGAN-4",
        "meta_object_id": "2008-061A",
        "meta_epoch": "2025-12-09T18:27:44.192736",
        "meta_mean_motion": 14.82669066,
        "meta_eccentricity": 0.0013834,
        "meta_inclination": 97.918,
        "meta_ra_of_asc_node": 273.8977,
        "meta_arg_of_pericenter": 333.4194,
        "meta_mean_anomaly": 26.6309,
        "meta_ephemeris_type": 0,
        "meta_classification_type": "U",
        "meta_norad_cat_id": 33446,
        "meta_element_set_no": 999,
        "meta_rev_at_epoch": 91759,
        "meta_bstar": 0.000361,
        "meta_mean_motion_dot": 2.862e-05,
        "meta_mean_motion_ddot": 0,
        "tle_line1": "1 33446U 08061A   25343.76926149  .00002862  00000+0  36100-3 0  9996",
        "tle_line2": "2 33446  97.9180 273.8977 0013834 333.4194  26.6309 14.82669066917590"
      },
      "geometry": {
        "type": "Point",
        "coordinates": [
          91.52306513662748,
          -21.110293445461135
        ]
      }
    },
    {
      "type": "Feature",
      "properties": {
        "norad_id": 33492,
        "name": "GOSAT (IBUKI)",
        "group": "resource",
        "lat": 15.829222786278828,
        "lon": 90.80896465985474,
        "alt_km": 669.3976849038927,
        "timestamp": "2025-12-10T11:33:53.047950+00:00",
        "meta_object_name": "GOSAT (IBUKI)",
        "meta_object_id": "2009-002A",
        "meta_epoch": "2025-12-09T17:29:31.577280",
        "meta_mean_motion": 14.67546684,
        "meta_eccentricity": 9.48e-05,
        "meta_inclination": 98.0769,
        "meta_ra_of_asc_node": 92.374,
        "meta_arg_of_pericenter": 88.233,
        "meta_mean_anomaly": 271.8984,
        "meta_ephemeris_type": 0,
        "meta_classification_type": "U",
        "meta_norad_cat_id": 33492,
        "meta_element_set_no": 999,
        "meta_rev_at_epoch": 90367,
        "meta_bstar": 0.00030026,
        "meta_mean_motion_dot": 1.655e-05,
        "meta_mean_motion_ddot": 0,
        "tle_line1": "1 33492U 09002A   25343.72883770  .00001655  00000+0  30026-3 0  9991",
        "tle_line2": "2 33492  98.0769  92.3740 0000948  88.2330 271.8984 14.67546684903677"
      },
      "geometry": {
        "type": "Point",
        "coordinates": [
          90.80896465985474,
          15.829222786278828
        ]
      }
    },
    {
      "type": "Feature",
      "properties": {
        "norad_id": 35681,
        "name": "DEIMOS-1",
        "group": "resource",
        "lat": 33.4328942807817,
        "lon": 140.05524337990954,
        "alt_km": 641.9988419919146,
        "timestamp": "2025-12-10T11:33:53.047962+00:00",
        "meta_object_name": "DEIMOS-1",
        "meta_object_id": "2009-041A",
        "meta_epoch": "2025-12-10T04:53:57.950880",
        "meta_mean_motion": 14.74944946,
        "meta_eccentricity": 0.000275,
        "meta_inclination": 97.7148,
        "meta_ra_of_asc_node": 144.9252,
        "meta_arg_of_pericenter": 83.5292,
        "meta_mean_anomaly": 276.6231,
        "meta_ephemeris_type": 0,
        "meta_classification_type": "U",
        "meta_norad_cat_id": 35681,
        "meta_element_set_no": 999,
        "meta_rev_at_epoch": 87902,
        "meta_bstar": 0.0001255,
        "meta_mean_motion_dot": 7.96e-06,
        "meta_mean_motion_ddot": 0,
        "tle_line1": "1 35681U 09041A   25344.20414295  .00000796  00000+0  12550-3 0  9999",
        "tle_line2": "2 35681  97.7148 144.9252 0002750  83.5292 276.6231 14.74944946879026"
      },
      "geometry": {
        "type": "Point",
        "coordinates": [
          140.05524337990954,
          33.4328942807817
        ]
      }
    },
    {
      "type": "Feature",
      "properties": {
        "norad_id": 35682,
        "name": "DUBAISAT-1",
        "group": "resource",
        "lat": -28.222660348978987,
        "lon": 119.51193268612485,
        "alt_km": 645.5214689092063,
        "timestamp": "2025-12-10T11:33:53.047972+00:00",
        "meta_object_name": "DUBAISAT-1",
        "meta_object_id": "2009-041B",
        "meta_epoch": "2025-12-09T19:24:29.093184",
        "meta_mean_motion": 14.74591888,
        "meta_eccentricity": 0.0009749,
        "meta_inclination": 97.9789,
        "meta_ra_of_asc_node": 114.5317,
        "meta_arg_of_pericenter": 324.7314,
        "meta_mean_anomaly": 35.3249,
        "meta_ephemeris_type": 0,
        "meta_classification_type": "U",
        "meta_norad_cat_id": 35682,
        "meta_element_set_no": 999,
        "meta_rev_at_epoch": 87718,
        "meta_bstar": 0.00038428,
        "meta_mean_motion_dot": 2.512e-05,
        "meta_mean_motion_ddot": 0,
        "tle_line1": "1 35682U 09041B   25343.80867006  .00002512  00000+0  38428-3 0  9997",
        "tle_line2": "2 35682  97.9789 114.5317 0009749 324.7314  35.3249 14.74591888877182"
      },
      "geometry": {
        "type": "Point",
        "coordinates": [
          119.51193268612485,
          -28.222660348978987
        ]
      }
    },
    {
      "type": "Feature",
      "properties": {
        "norad_id": 35931,
        "name": "OCEANSAT-2",
        "group": "resource",
        "lat": 37.0872639178469,
        "lon": -20.96370475159169,
        "alt_km": 880.8337307275824,
        "timestamp": "2025-12-10T11:33:53.047983+00:00",
        "meta_object_name": "OCEANSAT-2",
        "meta_object_id": "2009-051A",
        "meta_epoch": "2025-12-10T04:31:25.104864",
        "meta_mean_motion": 13.99625185,
        "meta_eccentricity": 0.0016312,
        "meta_inclination": 98.2225,
        "meta_ra_of_asc_node": 345.0479,
        "meta_arg_of_pericenter": 51.7143,
        "meta_mean_anomaly": 308.5488,
        "meta_ephemeris_type": 0,
        "meta_classification_type": "U",
        "meta_norad_cat_id": 35931,
        "meta_element_set_no": 999,
        "meta_rev_at_epoch": 85289,
        "meta_bstar": -7.8585e-05,
        "meta_mean_motion_dot": -1.52e-06,
        "meta_mean_motion_ddot": 0,
        "tle_line1": "1 35931U 09051A   25344.18848501 -.00000152  00000+0 -78585-4 0  9995",
        "tle_line2": "2 35931  98.2225 345.0479 0016312  51.7143 308.5488 13.99625185852894"
      },
      "geometry": {
        "type": "Point",
        "coordinates": [
          -20.96370475159169,
          37.0872639178469
        ]
      }
    },
    {
      "type": "Feature",
      "properties": {
        "norad_id": 35946,
        "name": "WORLDVIEW-2 (WV-2)",
        "group": "resource",
        "lat": -29.763046221634653,
        "lon": -129.29455130408826,
        "alt_km": 775.0016587393266,
        "timestamp": "2025-12-10T11:33:53.047993+00:00",
        "meta_object_name": "WORLDVIEW-2 (WV-2)",
        "meta_object_id": "2009-055A",
        "meta_epoch": "2025-12-10T03:54:35.568288",
        "meta_mean_motion": 14.37650887,
        "meta_eccentricity": 0.0005348,
        "meta_inclination": 98.4762,
        "meta_ra_of_asc_node": 55.2829,
        "meta_arg_of_pericenter": 73.187,
        "meta_mean_anomaly": 286.9903,
        "meta_ephemeris_type": 0,
        "meta_classification_type": "U",
        "meta_norad_cat_id": 35946,
        "meta_element_set_no": 999,
        "meta_rev_at_epoch": 84848,
        "meta_bstar": 0.00010681,
        "meta_mean_motion_dot": 2.77e-06,
        "meta_mean_motion_ddot": 0,
        "tle_line1": "1 35946U 09055A   25344.16291167  .00000277  00000+0  10681-3 0  9991",
        "tle_line2": "2 35946  98.4762  55.2829 0005348  73.1870 286.9903 14.37650887848480"
      },
      "geometry": {
        "type": "Point",
        "coordinates": [
          -129.29455130408826,
          -29.763046221634653
        ]
      }
    }
  ]
}